
    {
        "ARG_OF_PERICENTER": 80.5442,
        "BSTAR": 0.00029632,
        "CLASSIFICATION_TYPE": "U",
        "ECCENTRICITY": 0.0129651,
        "ELEMENT_SET_NO": 999,
        "EPHEMERIS_TYPE": 0,
        "EPOCH": "2026-05-04T04:19:43.390848",
        "INCLINATION": 64.7693,
        "MEAN_ANOMALY": 281.0297,
        "MEAN_MOTION": 14.91199347,
        "MEAN_MOTION_DDOT": 0,
        "MEAN_MOTION_DOT": 3.292e-05,
        "NORAD_CAT_ID": 40965,
        "OBJECT_ID": "2015-058B",
        "OBJECT_NAME": "AEROCUBE 5C",
        "RA_OF_ASC_NODE": 39.4656,
        "REV_AT_EPOCH": 35909
    },
    {
        "ARG_OF_PERICENTER": 79.3098,
        "BSTAR": 0.00038883,
        "CLASSIFICATION_TYPE": "U",
        "ECCENTRICITY": 0.0119496,
        "ELEMENT_SET_NO": 999,
        "EPHEMERIS_TYPE": 0,
        "EPOCH": "2026-05-04T04:00:54.879840",
        "INCLINATION": 64.7647,
        "MEAN_ANOMALY": 282.1445,
        "MEAN_MOTION": 14.95376884,
        "MEAN_MOTION_DDOT": 0,
        "MEAN_MOTION_DOT": 4.791e-05,
        "NORAD_CAT_ID": 40966,
        "OBJECT_ID": "2015-058C",
        "OBJECT_NAME": "AEROCUBE 7",
        "RA_OF_ASC_NODE": 22.6587,
        "REV_AT_EPOCH": 35937
    },
    {
        "ARG_OF_PERICENTER": 73.8514,
        "BSTAR": 0.00032017,
        "CLASSIFICATION_TYPE": "U",
        "ECCENTRICITY": 0.0128705,
        "ELEMENT_SET_NO": 999,
        "EPHEMERIS_TYPE": 0,
        "EPOCH": "2026-05-04T03:30:52.111872",
        "INCLINATION": 64.7767,
        "MEAN_ANOMALY": 287.672,
        "MEAN_MOTION": 14.90704882,
        "MEAN_MOTION_DDOT": 0,
        "MEAN_MOTION_DOT": 3.515e-05,
        "NORAD_CAT_ID": 40967,
        "OBJECT_ID": "2015-058D",
        "OBJECT_NAME": "FOX-1A (AO-85)",
        "RA_OF_ASC_NODE": 55.819,
        "REV_AT_EPOCH": 10700
    },
    {
        "ARG_OF_PERICENTER": 70.7474,
        "BSTAR": 0.00044609,
        "CLASSIFICATION_TYPE": "U",
        "ECCENTRICITY": 0.0117192,
        "ELEMENT_SET_NO": 999,
        "EPHEMERIS_TYPE": 0,
        "EPOCH": "2026-05-04T00:24:07.339968",
        "INCLINATION": 64.7772,
        "MEAN_ANOMALY": 290.6275,
        "MEAN_MOTION": 14.95551169,
        "MEAN_MOTION_DDOT": 0,
        "MEAN_MOTION_DOT": 5.521e-05,
        "NORAD_CAT_ID": 40968,
        "OBJECT_ID": "2015-058E",
        "OBJECT_NAME": "SINOD-D 1",
        "RA_OF_ASC_NODE": 37.1982,
        "REV_AT_EPOCH": 11005
    },
    {
        "ARG_OF_PERICENTER": 37.1188,
        "BSTAR": 0.0014689,
        "CLASSIFICATION_TYPE": "U",
        "ECCENTRICITY": 0.0031899,
        "ELEMENT_SET_NO": 999,
        "EPHEMERIS_TYPE": 0,
        "EPOCH": "2026-05-04T01:43:16.239936",
        "INCLINATION": 64.7542,
        "MEAN_ANOMALY": 323.2151,
        "MEAN_MOTION": 15.52252254,
        "MEAN_MOTION_DDOT": 0,
        "MEAN_MOTION_DOT": 0.00092522,
        "NORAD_CAT_ID": 40970,
        "OBJECT_ID": "2015-058G",
        "OBJECT_NAME": "SNAP-3 ALICE",
        "RA_OF_ASC_NODE": 255.3851,
        "REV_AT_EPOCH": 11002
    },
    {
        "ARG_OF_PERICENTER": 75.861,
        "BSTAR": 0.00031264,
        "CLASSIFICATION_TYPE": "U",
        "ECCENTRICITY": 0.0130513,
        "ELEMENT_SET_NO": 999,
        "EPHEMERIS_TYPE": 0,
        "EPOCH": "2026-05-04T03:47:08.617632",
        "INCLINATION": 64.7774,
        "MEAN_ANOMALY": 285.6963,
        "MEAN_MOTION": 14.90331391,
        "MEAN_MOTION_DDOT": 0,
        "MEAN_MOTION_DOT": 3.408e-05,
        "NORAD_CAT_ID": 40971,
        "OBJECT_ID": "2015-058H",
        "OBJECT_NAME": "LMRST-SAT",
        "RA_OF_ASC_NODE": 52.0393,
        "REV_AT_EPOCH": 10699
    },
    {
        "ARG_OF_PERICENTER": 41.2788,
        "BSTAR": 0.0013163269,
        "CLASSIFICATION_TYPE": "U",
        "ECCENTRICITY": 0.00325248,
        "ELEMENT_SET_NO": 999,
        "EPHEMERIS_TYPE": 0,
        "EPOCH": "2026-05-03T18:33:18.654912",
        "INCLINATION": 64.7462,
        "MEAN_ANOMALY": 319.0805,
        "MEAN_MOTION": 15.53297327,
        "MEAN_MOTION_DDOT": 0,
        "MEAN_MOTION_DOT": 0.00086103,
        "NORAD_CAT_ID": 40972,
        "OBJECT_ID": "2015-058J",
        "OBJECT_NAME": "SNAP-3 EDDIE",
        "RA_OF_ASC_NODE": 247.444,
        "REV_AT_EPOCH": 11211
    },
    {
        "ARG_OF_PERICENTER": 77.4192,
        "BSTAR": 0.00035225,
        "CLASSIFICATION_TYPE": "U",
        "ECCENTRICITY": 0.0122767,
        "ELEMENT_SET_NO": 999,
        "EPHEMERIS_TYPE": 0,
        "EPOCH": "2026-05-04T04:00:13.383648",
        "INCLINATION": 64.7709,
        "MEAN_ANOMALY": 284.0619,
        "MEAN_MOTION": 14.93950816,
        "MEAN_MOTION_DDOT": 0,
        "MEAN_MOTION_DOT": 4.187e-05,
        "NORAD_CAT_ID": 40973,
        "OBJECT_ID": "2015-058K",
        "OBJECT_NAME": "PROPCUBE 3",
        "RA_OF_ASC_NODE": 30.039,
        "REV_AT_EPOCH": 10822
    },
    {
        "ARG_OF_PERICENTER": 66.9116,
        "BSTAR": 0.00066775,
        "CLASSIFICATION_TYPE": "U",
        "ECCENTRICITY": 0.0078122,
        "ELEMENT_SET_NO": 999,
        "EPHEMERIS_TYPE": 0,
        "EPOCH": "2026-05-03T21:25:51.313728",
        "INCLINATION": 64.7598,
        "MEAN_ANOMALY": 294.0219,
        "MEAN_MOTION": 15.15277326,
        "MEAN_MOTION_DDOT": 0,
        "MEAN_MOTION_DOT": 0.00013452,
        "NORAD_CAT_ID": 40974,
        "OBJECT_ID": "2015-058L",
        "OBJECT_NAME": "BISONSAT",
        "RA_OF_ASC_NODE": 316.7439,
        "REV_AT_EPOCH": 10890
    },
    {
        "ARG_OF_PERICENTER": 73.6253,
        "BSTAR": 0.00049625,
        "CLASSIFICATION_TYPE": "U",
        "ECCENTRICITY": 0.0104766,
        "ELEMENT_SET_NO": 999,
        "EPHEMERIS_TYPE": 0,
        "EPOCH": "2026-05-04T01:08:04.370784",
        "INCLINATION": 64.7667,
        "MEAN_ANOMALY": 287.6351,
        "MEAN_MOTION": 15.01834421,
        "MEAN_MOTION_DDOT": 0,
        "MEAN_MOTION_DOT": 7.133e-05,
        "NORAD_CAT_ID": 40975,
        "OBJECT_ID": "2015-058M",
        "OBJECT_NAME": "SNAP-3 JIMI",
        "RA_OF_ASC_NODE": 359.3789,
        "REV_AT_EPOCH": 10759
    },
    {
        "ARG_OF_PERICENTER": 78.1552,
        "BSTAR": 0.00032469,
        "CLASSIFICATION_TYPE": "U",
        "ECCENTRICITY": 0.0129356,
        "ELEMENT_SET_NO": 999,
        "EPHEMERIS_TYPE": 0,
        "EPOCH": "2026-05-04T03:20:41.260416",
        "INCLINATION": 64.7754,
        "MEAN_ANOMALY": 283.4033,
        "MEAN_MOTION": 14.88969143,
        "MEAN_MOTION_DDOT": 0,
        "MEAN_MOTION_DOT": 3.407e-05,
        "NORAD_CAT_ID": 40976,
        "OBJECT_ID": "2015-058N",
        "OBJECT_NAME": "PROPCUBE 1 (FLORA)",
        "RA_OF_ASC_NODE": 71.7228,
        "REV_AT_EPOCH": 10970
    },
    {
        "ARG_OF_PERICENTER": 75.6606,
        "BSTAR": 0.00039325,
        "CLASSIFICATION_TYPE": "U",
        "ECCENTRICITY": 0.0117849,
        "ELEMENT_SET_NO": 999,
        "EPHEMERIS_TYPE": 0,
        "EPOCH": "2026-05-04T04:34:46.149024",
        "INCLINATION": 64.7741,
        "MEAN_ANOMALY": 285.7557,
        "MEAN_MOTION": 14.93673368,
        "MEAN_MOTION_DDOT": 0,
        "MEAN_MOTION_DOT": 4.606e-05,
        "NORAD_CAT_ID": 40977,
        "OBJECT_ID": "2015-058P",
        "OBJECT_NAME": "SINOD-D 3",
        "RA_OF_ASC_NODE": 53.168,
        "REV_AT_EPOCH": 10818
    },
    {
        "ARG_OF_PERICENTER": 308.9775,
        "BSTAR": 0.0010035,
        "CLASSIFICATION_TYPE": "U",
        "ECCENTRICITY": 0.0006262,
        "ELEMENT_SET_NO": 999,
        "EPHEMERIS_TYPE": 0,
        "EPOCH": "2026-05-04T01:40:13.514304",
        "INCLINATION": 30.9901,
        "MEAN_ANOMALY": 51.0323,
        "MEAN_MOTION": 15.75564117,
        "MEAN_MOTION_DDOT": 0,
        "MEAN_MOTION_DOT": 0.00162846,
        "NORAD_CAT_ID": 41340,
        "OBJECT_ID": "2016-012D",
        "OBJECT_NAME": "HORYU-4",
        "RA_OF_ASC_NODE": 37.2237,
        "REV_AT_EPOCH": 56381
    }