AEROCUBE 5C             
1 40965U 15058B   26124.18036332  .00003292  00000+0  29632-3 0  9994
2 40965  64.7693  39.4656 0129651  80.5442 281.0297 14.91199347359094
AEROCUBE 7              
1 40966U 15058C   26124.16730185  .00004791  00000+0  38883-3 0  9993
2 40966  64.7647  22.6587 0119496  79.3098 282.1445 14.95376884359375
FOX-1A (AO-85)          
1 40967U 15058D   26124.14643648  .00003515  00000+0  32017-3 0  9995
2 40967  64.7767  55.8190 0128705  73.8514 287.6720 14.90704882107007
SINOD-D 1               
1 40968U 15058E   26124.01675162  .00005521  00000+0  44609-3 0  9997
2 40968  64.7772  37.1982 0117192  70.7474 290.6275 14.95551169110056
SNAP-3 ALICE            
1 40970U 15058G   26124.07171574  .00092522  00000+0  14689-2 0  9995
2 40970  64.7542 255.3851 0031899  37.1188 323.2151 15.52252254110021
LMRST-SAT               
1 40971U 15058H   26124.15773863  .00003408  00000+0  31264-3 0  9998
2 40971  64.7774  52.0393 0130513  75.8610 285.6963 14.90331391106998
SNAP-3 EDDIE            
1 40972U 15058J   26123.77313258  .00086103  00000+0  13163-2 0  9994
2 40972  64.7462 247.4440 0032524  41.2788 319.0805 15.53297327112110
PROPCUBE 3              
1 40973U 15058K   26124.16682157  .00004187  00000+0  35225-3 0  9992
2 40973  64.7709  30.0390 0122767  77.4192 284.0619 14.93950816108227
BISONSAT                
1 40974U 15058L   26123.89295502  .00013452  00000+0  66775-3 0  9995
2 40974  64.7598 316.7439 0078122  66.9116 294.0219 15.15277326108901
SNAP-3 JIMI             
1 40975U 15058M   26124.04727281  .00007133  00000+0  49625-3 0  9992
2 40975  64.7667 359.3789 0104766  73.6253 287.6351 15.01834421107590
PROPCUBE 1 (FLORA)      
1 40976U 15058N   26124.13936644  .00003407  00000+0  32469-3 0  9996
2 40976  64.7754  71.7228 0129356  78.1552 283.4033 14.88969143109705
SINOD-D 3               
1 40977U 15058P   26124.19081191  .00004606  00000+0  39325-3 0  9991
2 40977  64.7741  53.1680 0117849  75.6606 285.7557 14.93673368108188
HORYU-4                 
1 41340U 16012D   26124.06960086  .00162846  00000+0  10035-2 0  9999
2 41340  30.9901  37.2237 0006262 308.9775  51.0323 15.75564117563814
